STARLINK-37628          
1 69823U 26154E   26191.83335647 -.01469863  66538-3 -28976-2 0  9998
2 69823  53.1593 315.1599 0001166  56.0636 138.8892 15.99448511  1961
STARLINK-37695          
1 69824U 26154F   26191.83335647 -.01475271  67086-3 -28861-2 0  9991
2 69824  53.1594 315.1557 0001029  57.4121 139.6163 15.99584152  1961
STARLINK-37690          
1 69825U 26154G   26191.83335647 -.01467905  66555-3 -28528-2 0  9997
2 69825  53.1593 315.1522 0001135  60.6392 138.0930 15.99698583  1966
STARLINK-37710          
1 69826U 26154H   26191.83335647 -.01486301  68202-3 -28647-2 0  9992
2 69826  53.1593 315.1479 0001039  48.8388 151.9203 15.99847371  1962
STARLINK-38031          
1 69827U 26154J   26191.83335647 -.01484761  68158-3 -28429-2 0  9999
2 69827  53.1594 315.1438 0000962  52.1387 150.4879 15.99962674  1967
STARLINK-38001          
1 69828U 26154K   26191.83335647 -.01481810  67993-3 -28188-2 0  9990
2 69828  53.1593 315.1402 0000982  51.6320 152.8174 16.00076038  1968
STARLINK-37622          
1 69829U 26154L   26191.83335647 -.01477539  67718-3 -27925-2 0  9997
2 69829  53.1593 315.1364 0001015  51.6461 154.6587 16.00188744  1966
STARLINK-37621          
1 69830U 26154M   26191.83335647 -.01472131  67345-3 -27647-2 0  9999
2 69830  53.1592 315.1331 0001035  51.1287 156.7875 16.00298240  1960
STARLINK-37918          
1 69831U 26154N   26191.83335647 -.01450939  65642-3 -27106-2 0  9990
2 69831  53.1592 315.1298 0001161  57.7235 151.7952 16.00385935  1967
STARLINK-37887          
1 69832U 26154P   26191.83335647 -.01463488  66777-3 -27148-2 0  9990
2 69832  53.1592 315.1265 0000966  52.4389 158.6182 16.00511759  1962
STARLINK-37624          
1 69833U 26154Q   26191.83335647 -.01462973  66822-3 -26952-2 0  9992
2 69833  53.1591 315.1222 0001003  51.9485 161.2786 16.00631213  1967
STARLINK-37769          
1 69834U 26154R   26191.83335647 -.01441581  65110-3 -26409-2 0  9991
2 69834  53.1591 315.1180 0001129  58.4251 156.8289 16.00725013  1963
STARLINK-37247          
1 69835U 26154S   26191.83335647 -.01440263  65082-3 -26210-2 0  9996
2 69835  53.1590 315.1141 0001095  54.4851 162.6769 16.00839559  2065
STARLINK-37569          
1 69836U 26154T   26191.83335647 -.01436109  64814-3 -25975-2 0  9990
2 69836  53.1589 315.1111 0001043  60.5917 158.1033 16.00944775  1964
STARLINK-37587          
1 69837U 26154U   26191.83335647 -.01451655  66208-3 -26047-2 0  9994
2 69837  53.1589 315.1061 0000957  46.5733 174.4319 16.01085517  1938
STARLINK-37590          
1 69838U 26154V   26191.83335647 -.01447607  65949-3 -25811-2 0  9996
2 69838  53.1589 315.1025 0000877  45.6631 177.1163 16.01193998  1803
STARLINK-37589          
1 69839U 26154W   26191.83335647 -.01449145  66163-3 -25664-2 0  9991
2 69839  53.1588 315.0985 0000851  48.5296 176.2407 16.01310892  1937
STARLINK-37487          
1 69840U 26154X   26191.83335647 -.01243732  52954-3 -16329-2 0  9998
2 69840  53.1584 314.9927 0000806  42.7196 232.4624 16.06252894  1932
STARLINK-37433          
1 69841U 26154Y   26191.83335647 -.01289974  56773-3 -16675-2 0  9994
2 69841  53.1584 314.9845 0000795  38.6026 240.4979 16.06510193  2061
STARLINK-37588          
1 69842U 26154Z   26191.83335647 -.01307189  58342-3 -16633-2 0  9992
2 69842  53.1584 314.9758 0000757  39.1451 244.1627 16.06765152  1967
STARLINK-37579          
1 69843U 26154AA  26191.83335647 -.01301823  58146-3 -16209-2 0  9993
2 69843  53.1583 314.9639 0000799  45.1297 243.7668 16.07109466  1967
STARLINK-37584          
1 69844U 26154AB  26191.83335647 -.01339633  61436-3 -16454-2 0  9992
2 69844  53.1585 314.9566 0000760  37.4467 254.8565 16.07331919  1969
STARLINK-37606          
1 69845U 26154AC  26191.83335647 -.01354778  62910-3 -16374-2 0  9999
2 69845  53.1582 314.9480 0000782  41.2952 255.0909 16.07589404  1967
STARLINK-37603          
1 69846U 26154AD  26191.83335647 -.01373710  64794-3 -16259-2 0  9991
2 69846  53.1584 314.9378 0000735  39.8799 261.3726 16.07920865  1963
STARLINK-37595          
1 69847U 26154AE  26191.83335647 -.01378930  65395-3 -16130-2 0  9997
2 69847  53.1583 314.9300 0000748  40.3395 264.4788 16.08106499  1963
2026-158A               
1 69972U 26158A   26191.84981597 -.00000124  00000+0  15027-4 0  9991
2 69972  49.9858 298.7574 0004928 286.9845  73.0528 14.25146435    83
2026-158B               
1 69973U 26158B   26191.77979863 -.00000129  00000+0  13045-4 0  9990
2 69973  49.9859 299.0538 0005686 297.8015  62.2321 14.24884895    79
CZ-10B R/B              
1 69974U 26158C   26191.83284742  .00000207  00000+0  64180-4 0  9995
2 69974  49.9651 298.6353 0197627 184.6042 175.3074 14.64294088    85
