OBJECT_NAME,OBJECT_ID,EPOCH,MEAN_MOTION,ECCENTRICITY,INCLINATION,RA_OF_ASC_NODE,ARG_OF_PERICENTER,MEAN_ANOMALY,EPHEMERIS_TYPE,CLASSIFICATION_TYPE,NORAD_CAT_ID,ELEMENT_SET_NO,REV_AT_EPOCH,BSTAR,MEAN_MOTION_DOT,MEAN_MOTION_DDOT
STARLINK-37628,2026-154E,2026-07-10T20:00:01.999008,15.99448511,.0001166,53.1593,315.1599,56.0636,138.8892,0,U,69823,999,196,-.28976E-2,-.1469863E-1,.66538E-3
STARLINK-37695,2026-154F,2026-07-10T20:00:01.999008,15.99584152,.0001029,53.1594,315.1557,57.4121,139.6163,0,U,69824,999,196,-.28861E-2,-.1475271E-1,.67086E-3
STARLINK-37690,2026-154G,2026-07-10T20:00:01.999008,15.99698583,.0001135,53.1593,315.1522,60.6392,138.0930,0,U,69825,999,196,-.28528E-2,-.1467905E-1,.66555E-3
STARLINK-37710,2026-154H,2026-07-10T20:00:01.999008,15.99847371,.0001039,53.1593,315.1479,48.8388,151.9203,0,U,69826,999,196,-.28647E-2,-.1486301E-1,.68202E-3
STARLINK-38031,2026-154J,2026-07-10T20:00:01.999008,15.99962674,.0000962,53.1594,315.1438,52.1387,150.4879,0,U,69827,999,196,-.28429E-2,-.1484761E-1,.68158E-3
STARLINK-38001,2026-154K,2026-07-10T20:00:01.999008,16.00076038,.0000982,53.1593,315.1402,51.6320,152.8174,0,U,69828,999,196,-.28188E-2,-.148181E-1,.67993E-3
STARLINK-37622,2026-154L,2026-07-10T20:00:01.999008,16.00188744,.0001015,53.1593,315.1364,51.6461,154.6587,0,U,69829,999,196,-.27925E-2,-.1477539E-1,.67718E-3
STARLINK-37621,2026-154M,2026-07-10T20:00:01.999008,16.00298240,.0001035,53.1592,315.1331,51.1287,156.7875,0,U,69830,999,196,-.27647E-2,-.1472131E-1,.67345E-3
STARLINK-37918,2026-154N,2026-07-10T20:00:01.999008,16.00385935,.0001161,53.1592,315.1298,57.7235,151.7952,0,U,69831,999,196,-.27106E-2,-.1450939E-1,.65642E-3
STARLINK-37887,2026-154P,2026-07-10T20:00:01.999008,16.00511759,.0000966,53.1592,315.1265,52.4389,158.6182,0,U,69832,999,196,-.27148E-2,-.1463488E-1,.66777E-3
STARLINK-37624,2026-154Q,2026-07-10T20:00:01.999008,16.00631213,.0001003,53.1591,315.1222,51.9485,161.2786,0,U,69833,999,196,-.26952E-2,-.1462973E-1,.66822E-3
STARLINK-37769,2026-154R,2026-07-10T20:00:01.999008,16.00725013,.0001129,53.1591,315.1180,58.4251,156.8289,0,U,69834,999,196,-.26409E-2,-.1441581E-1,.6511E-3
STARLINK-37247,2026-154S,2026-07-10T20:00:01.999008,16.00839559,.0001095,53.1590,315.1141,54.4851,162.6769,0,U,69835,999,206,-.2621E-2,-.1440263E-1,.65082E-3
STARLINK-37569,2026-154T,2026-07-10T20:00:01.999008,16.00944775,.0001043,53.1589,315.1111,60.5917,158.1033,0,U,69836,999,196,-.25975E-2,-.1436109E-1,.64814E-3
STARLINK-37587,2026-154U,2026-07-10T20:00:01.999008,16.01085517,.0000957,53.1589,315.1061,46.5733,174.4319,0,U,69837,999,193,-.26047E-2,-.1451655E-1,.66208E-3
STARLINK-37590,2026-154V,2026-07-10T20:00:01.999008,16.01193998,.0000877,53.1589,315.1025,45.6631,177.1163,0,U,69838,999,180,-.25811E-2,-.1447607E-1,.65949E-3
STARLINK-37589,2026-154W,2026-07-10T20:00:01.999008,16.01310892,.0000851,53.1588,315.0985,48.5296,176.2407,0,U,69839,999,193,-.25664E-2,-.1449145E-1,.66163E-3
STARLINK-37487,2026-154X,2026-07-10T20:00:01.999008,16.06252894,.0000806,53.1584,314.9927,42.7196,232.4624,0,U,69840,999,193,-.16329E-2,-.1243732E-1,.52954E-3
STARLINK-37433,2026-154Y,2026-07-10T20:00:01.999008,16.06510193,.0000795,53.1584,314.9845,38.6026,240.4979,0,U,69841,999,206,-.16675E-2,-.1289974E-1,.56773E-3
STARLINK-37588,2026-154Z,2026-07-10T20:00:01.999008,16.06765152,.0000757,53.1584,314.9758,39.1451,244.1627,0,U,69842,999,196,-.16633E-2,-.1307189E-1,.58342E-3
STARLINK-37579,2026-154AA,2026-07-10T20:00:01.999008,16.07109466,.0000799,53.1583,314.9639,45.1297,243.7668,0,U,69843,999,196,-.16209E-2,-.1301823E-1,.58146E-3
STARLINK-37584,2026-154AB,2026-07-10T20:00:01.999008,16.07331919,.000076,53.1585,314.9566,37.4467,254.8565,0,U,69844,999,196,-.16454E-2,-.1339633E-1,.61436E-3
STARLINK-37606,2026-154AC,2026-07-10T20:00:01.999008,16.07589404,.0000782,53.1582,314.9480,41.2952,255.0909,0,U,69845,999,196,-.16374E-2,-.1354778E-1,.6291E-3
STARLINK-37603,2026-154AD,2026-07-10T20:00:01.999008,16.07920865,.0000735,53.1584,314.9378,39.8799,261.3726,0,U,69846,999,196,-.16259E-2,-.137371E-1,.64794E-3
STARLINK-37595,2026-154AE,2026-07-10T20:00:01.999008,16.08106499,.0000748,53.1583,314.9300,40.3395,264.4788,0,U,69847,999,196,-.1613E-2,-.137893E-1,.65395E-3
2026-158A,2026-158A,2026-07-10T20:23:44.099808,14.25146435,.0004928,49.9858,298.7574,286.9845,73.0528,0,U,69972,999,8,.15027E-4,-.124E-5,0
2026-158B,2026-158B,2026-07-10T18:42:54.601632,14.24884895,.0005686,49.9859,299.0538,297.8015,62.2321,0,U,69973,999,7,.13045E-4,-.129E-5,0
CZ-10B R/B,2026-158C,2026-07-10T19:59:18.017088,14.64294088,.0197627,49.9651,298.6353,184.6042,175.3074,0,U,69974,999,8,.6418E-4,.207E-5,0
